TEVEL2-2                
1 63219U 25052K   26068.64848259  .00020339  00000+0  69428-3 0  9991
2 63219  97.3987 324.7700 0004693 105.7930 254.3828 15.30343745 54855
STARLINK-36047          
1 66795U 25278E   26068.53126251  .00016027  00000+0  59027-3 0  9995
2 66795  43.0018 115.3715 0001460 254.6191 105.4499 15.27601267 15187
